{
  "type": "FeatureCollection",
  "features": [
    {
      "type": "Feature",
      "properties": {
        "norad_id": 19071,
        "name": "OSCAR 32",
        "group": "nnss",
        "lat": 76.96992085110844,
        "lon": -162.2643787777545,
        "alt_km": 1120.53769771706,
        "timestamp": "2025-12-06T20:37:56.340389+00:00",
        "meta_object_name": "OSCAR 32",
        "meta_object_id": "1988-033B",
        "meta_epoch": "2025-12-06T15:17:39.020352",
        "meta_mean_motion": 13.27952893,
        "meta_eccentricity": 0.01878419,
        "meta_inclination": 90.3223,
        "meta_ra_of_asc_node": 16.335,
        "meta_arg_of_pericenter": 183.7563,
        "meta_mean_anomaly": 298.6604,
        "meta_ephemeris_type": 0,
        "meta_classification_type": "U",
        "meta_norad_cat_id": 19071,
        "meta_element_set_no": 999,
        "meta_rev_at_epoch": 82184,
        "meta_bstar": 0.00022108086,
        "meta_mean_motion_dot": 1.18e-06,
        "meta_mean_motion_ddot": 0,
        "tle_line1": "1 19071U 88033B   25340.63725718  .00000118  00000+0  22108-3 0  9998",
        "tle_line2": "2 19071  90.3223  16.3350 0187841 183.7563 298.6604 13.27952893821846"
      },
      "geometry": {
        "type": "Point",
        "coordinates": [
          -162.2643787777545,
          76.96992085110844
        ]
      }
    },
    {
      "type": "Feature",
      "properties": {
        "norad_id": 19223,
        "name": "NOVA 2",
        "group": "nnss",
        "lat": 48.44347986981172,
        "lon": 78.29406554222584,
        "alt_km": 1146.613319949971,
        "timestamp": "2025-12-06T20:37:56.340400+00:00",
        "meta_object_name": "NOVA 2",
        "meta_object_id": "1988-052A",
        "meta_epoch": "2025-12-06T13:11:08.388096",
        "meta_mean_motion": 13.22934891,
        "meta_eccentricity": 0.00310907,
        "meta_inclination": 89.9872,
        "meta_ra_of_asc_node": 78.28,
        "meta_arg_of_pericenter": 33.5863,
        "meta_mean_anomaly": 337.9702,
        "meta_ephemeris_type": 0,
        "meta_classification_type": "U",
        "meta_norad_cat_id": 19223,
        "meta_element_set_no": 999,
        "meta_rev_at_epoch": 80866,
        "meta_bstar": 0.00028884987,
        "meta_mean_motion_dot": 1.3e-06,
        "meta_mean_motion_ddot": 0,
        "tle_line1": "1 19223U 88052A   25340.54940264  .00000130  00000+0  28885-3 0  9995",
        "tle_line2": "2 19223  89.9872  78.2800 0031090  33.5863 337.9702 13.22934891808669"
      },
      "geometry": {
        "type": "Point",
        "coordinates": [
          78.29406554222584,
          48.44347986981172
        ]
      }
    },
    {
      "type": "Feature",
      "properties": {
        "norad_id": 19419,
        "name": "OSCAR 25",
        "group": "nnss",
        "lat": 68.66975071427325,
        "lon": 20.134804833797478,
        "alt_km": 1161.248784259089,
        "timestamp": "2025-12-06T20:37:56.340410+00:00",
        "meta_object_name": "OSCAR 25",
        "meta_object_id": "1988-074A",
        "meta_epoch": "2025-12-06T15:31:01.635744",
        "meta_mean_motion": 13.42621671,
        "meta_eccentricity": 0.00942628,
        "meta_inclination": 90.0351,
        "meta_ra_of_asc_node": 20.224,
        "meta_arg_of_pericenter": 263.541,
        "meta_mean_anomaly": 215.3416,
        "meta_ephemeris_type": 0,
        "meta_classification_type": "U",
        "meta_norad_cat_id": 19419,
        "meta_element_set_no": 999,
        "meta_rev_at_epoch": 82558,
        "meta_bstar": 0.00027999052,
        "meta_mean_motion_dot": 1.71e-06,
        "meta_mean_motion_ddot": 0,
        "tle_line1": "1 19419U 88074A   25340.64654671  .00000171  00000+0  27999-3 0  9991",
        "tle_line2": "2 19419  90.0351  20.2240 0094262 263.5410 215.3416 13.42621671825581"
      },
      "geometry": {
        "type": "Point",
        "coordinates": [
          20.134804833797478,
          68.66975071427325
        ]
      }
    },
    {
      "type": "Feature",
      "properties": {
        "norad_id": 19420,
        "name": "OSCAR 31",
        "group": "nnss",
        "lat": -46.173440420478165,
        "lon": 20.612056670277827,
        "alt_km": 1068.2161072961562,
        "timestamp": "2025-12-06T20:37:56.340421+00:00",
        "meta_object_name": "OSCAR 31",
        "meta_object_id": "1988-074B",
        "meta_epoch": "2025-12-06T16:04:43.885632",
        "meta_mean_motion": 13.42583231,
        "meta_eccentricity": 0.00925253,
        "meta_inclination": 90.0368,
        "meta_ra_of_asc_node": 20.573,
        "meta_arg_of_pericenter": 257.5822,
        "meta_mean_anomaly": 218.9768,
        "meta_ephemeris_type": 0,
        "meta_classification_type": "U",
        "meta_norad_cat_id": 19420,
        "meta_element_set_no": 999,
        "meta_rev_at_epoch": 82569,
        "meta_bstar": 0.00024589773,
        "meta_mean_motion_dot": 1.51e-06,
        "meta_mean_motion_ddot": 0,
        "tle_line1": "1 19420U 88074B   25340.66995238  .00000151  00000+0  24590-3 0  9994",
        "tle_line2": "2 19420  90.0368  20.5730 0092525 257.5822 218.9768 13.42583231825698"
      },
      "geometry": {
        "type": "Point",
        "coordinates": [
          20.612056670277827,
          -46.173440420478165
        ]
      }
    }
  ]
}